[
    {
        "Altitude(m)": 605459.0665611813,
        "Argument of Periapsis(deg)": 0.0,
        "Eccentricity": 0.0,
        "Inclination(deg)": 60.0,
        "Latitude(deg)": 27.98833661604508,
        "Longitude(deg)": 107.79859325164611,
        "Mean Anomaly(deg)": 32.727299999999985,
        "RAAN(deg)": 190.0,
        "Satellite Name": "Test1 838",
        "Satellite Number": 838,
        "Semi-Major Axis(m)": 6980739.136638005,
        "Time(s)": 0
    },
    {
        "Altitude(m)": 605535.8579998726,
        "Argument of Periapsis(deg)": 0.00010418945913296404,
        "Eccentricity": 0.0,
        "Inclination(deg)": 60.0,
        "Latitude(deg)": 28.50146601118878,
        "Longitude(deg)": 108.15553892389022,
        "Mean Anomaly(deg)": 33.34740614546184,
        "RAAN(deg)": 189.99957995086027,
        "Satellite Name": "Test1 838",
        "Satellite Number": 838,
        "Semi-Major Axis(m)": 6980739.136638005,
        "Time(s)": 10
    }
]